BEIDOU-3 M15 (C34)      
1 43648U 18078B   26062.37035185 -.00000055  00000+0  00000+0 0  9996
2 43648  54.1808 303.6975 0005342  38.8897 321.2084  1.86232017 50200
BEIDOU-3 G1 (C59)       
1 43683U 18085A   26066.17978247 -.00000281  00000+0  00000+0 0  9991
2 43683   2.8177 100.3057 0001582  15.4114 253.8947  1.00267768 27036
COSMOS 2529 (757)       
1 43687U 18086A   26058.37448306  .00000008  00000+0  00000+0 0  9993
2 43687  64.2955 196.2992 0007959 253.0448 106.8346  2.13101880 56941
BEIDOU-3 M17 (C36)      
1 43706U 18093A   26065.21496850  .00000012  00000+0  00000+0 0  9996
2 43706  54.1711 185.7894 0007108 296.9682  63.1399  1.86228456 49625
BEIDOU-3 M18 (C37)      
1 43707U 18093B   26065.61398671  .00000015  00000+0  00000+0 0  9996
2 43707  54.1721 185.7677 0006020 341.1146  18.8397  1.86226588 49625
GPS BIII-1  (PRN 04)    
1 43873U 18109A   26065.54477595 -.00000004  00000+0  00000+0 0  9992
2 43873  55.6164  96.2348 0037951 198.3878 333.9441  2.00556975 53010
BEIDOU-3 IGSO-1 (C38)   
1 44204U 19023A   26065.81911682 -.00000207  00000+0  00000+0 0  9992
2 44204  58.5573  38.7007 0025971 236.3637 303.4808  1.00270441  6188
BEIDOU-2 G8 (C01)       
1 44231U 19027A   26066.18073581 -.00000249  00000+0  00000+0 0  9990
2 44231   1.3998  74.2562 0011601 271.8588  28.2636  1.00275577 25053
COSMOS 2534 (758)       
1 44299U 19030A   26063.82267120  .00000008  00000+0  00000+0 0  9992
2 44299  64.3687 196.1275 0009607 279.9650  74.0554  2.13102294 52696
BEIDOU-3 IGSO-2 (C39)   
1 44337U 19035A   26057.68879618 -.00000176  00000+0  00000+0 0  9995
2 44337  55.2338 159.8353 0038734 206.4752 153.7223  1.00247364 24561
GPS BIII-2  (PRN 18)    
1 44506U 19056A   26065.18297285 -.00000100  00000+0  00000+0 0  9991
2 44506  55.6839 335.2387 0058046 198.0933 333.3685  2.00568454 48001
BEIDOU-3 M24 (C46)      
1 44542U 19061A   26065.14698524  .00000012  00000+0  00000+0 0  9995
2 44542  54.3990 186.2022 0008583  21.0011 339.0071  1.86228818 43870
BEIDOU-3 M23 (C45)      
1 44543U 19061B   26065.81391679  .00000016  00000+0  00000+0 0  9995
2 44543  54.3975 186.1481 0005058  13.8953 345.4949  1.86227427 43881
EUTELSAT 5 WEST B (EGN*)
1 44624U 19067A   26065.98377960 -.00000045  00000+0  00000+0 0  9999
2 44624   0.0903 313.4142 0003221  44.3118 156.1052  1.00273182 23415
BEIDOU-3 IGSO-3 (C40)   
1 44709U 19073A   26063.99963149 -.00000162  00000+0  00000+0 0  9999
2 44709  54.9773 282.0232 0040551 188.9231 171.0493  1.00269134 23418
BEIDOU-3 M22 (C44)      
1 44793U 19078A   26063.37544912 -.00000060  00000+0  00000+0 0  9999
2 44793  54.0307 303.5169 0007273  35.6258 324.4804  1.86231851 42694
BEIDOU-3 M21 (C43)      
1 44794U 19078B   26062.97806659 -.00000058  00000+0  00000+0 0  9991
2 44794  54.0042 303.4937 0005911  39.9322 320.1697  1.86227541 42693
COSMOS 2544 (759)       
1 44850U 19088A   26065.26106608  .00000003  00000+0  00000+0 0  9996
2 44850  65.5071  77.1646 0015780 259.7620 100.0954  2.13101873 48524
BEIDOU-3 M19 (C41)      
1 44864U 19090A   26064.56032794 -.00000033  00000+0  00000+0 0  9994
2 44864  56.4687  66.2141 0020433 291.4658 245.9437  1.86231373 42308
BEIDOU-3 M20 (C42)      
1 44865U 19090B   26064.42720734 -.00000032  00000+0  00000+0 0  9997
2 44865  56.4702  66.2529 0017835 302.9017 234.8674  1.86231388 42289
BEIDOU-3 G2 (C60)       
1 45344U 20017A   26066.16773575 -.00000142  00000+0  00000+0 0  9997
2 45344   2.6598  45.6412 0002716 311.4294 308.2242  1.00272794 22236
COSMOS 2545 (760)       
1 45358U 20018A   26064.04887093 -.00000054  00000+0  00000+0 0  9991
2 45358  64.4172 316.0811 0008063 250.0323 109.9417  2.13102426 46443
BEIDOU-3 G3 (C61)       
1 45807U 20040A   26066.04608384 -.00000356  00000+0  00000+0 0  9996
2 45807   2.1964  67.1395 0004574 319.6258 265.0903  1.00274385 21045
GPS BIII-3  (PRN 23)    
1 45854U 20041A   26065.51925653 -.00000081  00000+0  00000+0 0  9996
2 45854  56.6073  32.9268 0061430 205.2409 151.1260  2.00560728 41978
GALAXY 30 (WAAS/PRN 135)
1 46114U 20056C   26066.14072602  .00000000  00000+0  00000+0 0  9999
2 46114   0.0216 152.1450 0002041 204.8651  93.5172  1.00271923 20260
COSMOS 2547 (705K)      
1 46805U 20075A   26065.64518105  .00000026  00000+0  00000+0 0  9992
2 46805  64.5994 195.8945 0006875 230.4824 129.4314  2.13100263 41728
GPS BIII-4  (PRN 14)    
1 46826U 20078A   26064.79964802  .00000012  00000+0  00000+0 0  9997
2 46826  54.0013 214.9691 0068278 204.3383 325.7195  2.00565559 39435
GPS BIII-5  (PRN 11)    
1 48859U 21054A   26064.07032190 -.00000101  00000+0  00000+0 0  9997
2 48859  55.2207 336.6471 0023861 232.0319 315.6765  2.00575594 34666
QZS-1R (QZSS/PRN 196)   
1 49336U 21096A   26065.82405683 -.00000265  00000+0  00000+0 0  9990
2 49336  37.2488  81.0937 0747759 269.7649 244.5984  1.00290649 15989
GSAT0223 (GALILEO 27)   
1 49809U 21116A   26048.03988929 -.00000078  00000+0  00000+0 0  9993
2 49809  57.2005 344.9238 0002865 278.1950 264.6358  1.70475508 26130
GSAT0224 (GALILEO 28)   
1 49810U 21116B   26064.29072237 -.00000105  00000+0  00000+0 0  9998
2 49810  57.1948 344.4822 0001942 295.2728 253.6293  1.70475760 26438
COSMOS 2557 (706K)      
1 52984U 22075A   26063.93321719 -.00000057  00000+0  00000+0 0  9997
2 52984  64.3588 318.1599 0011575 283.5582  76.3723  2.13101614 28492
COSMOS 2559 (707K)      
1 54031U 22130A   26064.69111461 -.00000060  00000+0  00000+0 0  9993
2 54031  64.3310 318.2203 0010609 181.3136 178.7423  2.13101297 26488
COSMOS 2564 (761)       
1 54377U 22161A   26065.47314812  .00000025  00000+0  00000+0 0  9992
2 54377  64.7415 196.1184 0009461 210.1148 149.8044  2.13101994 25447
GPS BIII-6  (PRN 28)    
1 55268U 23009A   26064.24350115  .00000010  00000+0  00000+0 0  9998
2 55268  55.1095 152.6049 0004568 336.6055  15.2776  2.00549197 23157
BEIDOU-3 G4 (C62)       
1 56564U 23066A   26066.18376916 -.00000114  00000+0  00000+0 0  9999
2 56564   0.6436 311.3008 0002295 156.0566 283.7341  1.00272461 10372
NVS-01 (IRNSS-1J)       
1 56759U 23076A   26066.03513515 -.00000340  00000+0  00000+0 0  9999
2 56759   2.4125 248.5281 0007191  46.1018  12.2922  1.00272929 10096
COSMOS 2569 (703K)      
1 57517U 23114A   26063.60906547  .00000011  00000+0  00000+0 0  9990
2 57517  65.2420  76.1460 0012898 291.6250  68.2783  2.13103963 20030
BEIDOU-3 M28 (C50)      
1 58654U 23207A   26065.20334731 -.00000038  00000+0  00000+0 0  9994
2 58654  55.6620  65.7757 0004931 303.3418  56.6273  1.86229805 14926
BEIDOU-3 M26 (C48)      
1 58655U 23207B   26065.53778212 -.00000039  00000+0  00000+0 0  9998
2 58655  55.6644  65.7507 0005731 288.8087  71.1446  1.86229716 14918
GSAT0225 (GALILEO 29)   
1 59598U 24079A   26064.58030672  .00000007  00000+0  00000+0 0  9992
2 59598  55.0507 103.9743 0002603 257.7426 101.8321  1.70474989 11547
GSAT0227 (GALILEO 30)   
1 59600U 24079C   26062.41821347  .00000012  00000+0  00000+0 0  9999
2 59600  55.0440 104.0338 0000359  68.5105 291.5792  1.70474834 11567
GSAT0232 (GALILEO 32)   
1 61182U 24167A   26048.66150565  .00000069  00000+0  00000+0 0  9995
2 61182  55.2225 224.5881 0003600 296.6314 116.1306  1.70443939  8265
GSAT0226 (GALILEO 31)   
1 61183U 24167B   26063.09230740  .00000011  00000+0  00000+0 0  9991
2 61183  55.2176 224.2005 0001588 128.6581 232.0353  1.70474186  9066
BEIDOU-3 M25 (C47)      
1 61186U 24168B   26066.16989234 -.00000069  00000+0  00000+0 0  9999
2 61186  54.5633 305.7886 0004259 319.2946 221.4621  1.86230307  9884
BEIDOU-3 M27 (C49)      
1 61187U 24168C   26064.31689484 -.00000067  00000+0  00000+0 0  9997
2 61187  54.5604 305.8361 0002980  20.4343 132.9740  1.86230358  7324
GPS BIII-7  (PRN 01)    
1 62339U 24242A   26065.64478888 -.00000104  00000+0  00000+0 0  9993
2 62339  54.8910 338.3407 0015837 356.9340   8.8099  2.00569825  9206
NVS-02 (IRNSS-1K)       
1 62850U 25020A   26066.07786587  .00000788  00000+0  66793-3 0  9994
2 62850  20.8378 296.7346 7350007  81.5207 348.1073  2.17723396  8759
QZS-6 (QZSS/PRN 200)    
1 62876U 25023A   26066.09866209 -.00000235  00000+0  00000+0 0  9990
2 62876   0.0301 288.5034 0001825  56.7759 305.5247  1.00269602  3937
COSMOS 2584 (704K)      
1 63130U 25042A   26059.74188024  .00000039  00000+0  00000+0 0  9992
2 63130  65.0213  76.4877 0007822 236.2440 123.7373  2.13103267  7739
GPS BIII-8  (PRN 21)    
1 64202U 25116A   26062.39238152 -.00000077  00000+0  00000+0 0  9991
2 64202  55.1633  35.3874 0008474 325.1064  37.8908  2.00553198  5758
COSMOS 2596 (708K)      
1 65590U 25206B   26065.45409123 -.00000062  00000+0  00000+0 0  9994
2 65590  64.6931 318.5640 0012861 315.8873 223.8531  2.13100383  3723
GSAT0233 (GALILEO 33)   
1 67160U 25302A   26044.50000000 -.00000008  00000+0  00000+0 0  9990
2 67160  54.3935 105.2952 0003011 207.0582 359.4109  1.70474578    20
GSAT0234 (GALILEO 34)   
1 67162U 25302C   26044.50000000 -.00000008  00000+0  00000+0 0  9992
2 67162  54.3967 105.2938 0003081 266.8423 119.7309  1.70475065   127
GPS BIII-9  (PRN 20)    
1 67588U 26017A   26062.99831483  .00000012  00000+0  00000+0 0  9992
2 67588  55.0184  92.9751 0001516  18.2827 341.7919  2.00560918429508
